{
  "type": "FeatureCollection",
  "features": [
    {
      "type": "Feature",
      "properties": {
        "norad_id": 35434,
        "name": "COSMOS 2251 DEB",
        "group": "cosmos-2251-debris",
        "lat": 49.949313168333795,
        "lon": -3.8622093351289437,
        "alt_km": 847.2255759533346,
        "timestamp": "2025-12-22T11:33:20.836084+00:00",
        "meta_object_name": "COSMOS 2251 DEB",
        "meta_object_id": "1993-036AKC",
        "meta_epoch": "2025-12-21T23:09:55.217952",
        "meta_mean_motion": 14.25712741,
        "meta_eccentricity": 0.0087315,
        "meta_inclination": 74.0392,
        "meta_ra_of_asc_node": 196.9739,
        "meta_arg_of_pericenter": 265.7891,
        "meta_mean_anomaly": 93.3274,
        "meta_ephemeris_type": 0,
        "meta_classification_type": "U",
        "meta_norad_cat_id": 35434,
        "meta_element_set_no": 999,
        "meta_rev_at_epoch": 86249,
        "meta_bstar": 0.00059983,
        "meta_mean_motion_dot": 1.455e-05,
        "meta_mean_motion_ddot": 0,
        "tle_line1": "1 35434U 93036AKC 25355.96522243  .00001455  00000+0  59983-3 0  9994",
        "tle_line2": "2 35434  74.0392 196.9739 0087315 265.7891  93.3274 14.25712741862493"
      },
      "geometry": {
        "type": "Point",
        "coordinates": [
          -3.8622093351289437,
          49.949313168333795
        ]
      }
    },
    {
      "type": "Feature",
      "properties": {
        "norad_id": 35435,
        "name": "COSMOS 2251 DEB",
        "group": "cosmos-2251-debris",
        "lat": 14.008982801535408,
        "lon": 88.99395927733246,
        "alt_km": 638.8196163593066,
        "timestamp": "2025-12-22T11:33:20.836095+00:00",
        "meta_object_name": "COSMOS 2251 DEB",
        "meta_object_id": "1993-036AKD",
        "meta_epoch": "2025-12-21T14:40:33.079008",
        "meta_mean_motion": 14.78710754,
        "meta_eccentricity": 0.0007054,
        "meta_inclination": 74.0111,
        "meta_ra_of_asc_node": 86.6037,
        "meta_arg_of_pericenter": 183.8083,
        "meta_mean_anomaly": 241.499,
        "meta_ephemeris_type": 0,
        "meta_classification_type": "U",
        "meta_norad_cat_id": 35435,
        "meta_element_set_no": 999,
        "meta_rev_at_epoch": 87670,
        "meta_bstar": 0.0016617,
        "meta_mean_motion_dot": 0.00012188,
        "meta_mean_motion_ddot": 0,
        "tle_line1": "1 35435U 93036AKD 25355.61149397  .00012188  00000+0  16617-2 0  9993",
        "tle_line2": "2 35435  74.0111  86.6037 0007054 183.8083 241.4990 14.78710754876704"
      },
      "geometry": {
        "type": "Point",
        "coordinates": [
          88.99395927733246,
          14.008982801535408
        ]
      }
    },
    {
      "type": "Feature",
      "properties": {
        "norad_id": 35439,
        "name": "COSMOS 2251 DEB",
        "group": "cosmos-2251-debris",
        "lat": 4.330021236131538,
        "lon": -63.19477897538578,
        "alt_km": 976.8668010054434,
        "timestamp": "2025-12-22T11:33:20.836105+00:00",
        "meta_object_name": "COSMOS 2251 DEB",
        "meta_object_id": "1993-036AKH",
        "meta_epoch": "2025-12-20T15:40:28.809408",
        "meta_mean_motion": 13.92842634,
        "meta_eccentricity": 0.0242584,
        "meta_inclination": 74.0193,
        "meta_ra_of_asc_node": 121.1801,
        "meta_arg_of_pericenter": 288.7541,
        "meta_mean_anomaly": 84.8538,
        "meta_ephemeris_type": 0,
        "meta_classification_type": "U",
        "meta_norad_cat_id": 35439,
        "meta_element_set_no": 999,
        "meta_rev_at_epoch": 84071,
        "meta_bstar": 0.0011295,
        "meta_mean_motion_dot": 1.838e-05,
        "meta_mean_motion_ddot": 0,
        "tle_line1": "1 35439U 93036AKH 25354.65311122  .00001838  00000+0  11295-2 0  9994",
        "tle_line2": "2 35439  74.0193 121.1801 0242584 288.7541  84.8538 13.92842634840712"
      },
      "geometry": {
        "type": "Point",
        "coordinates": [
          -63.19477897538578,
          4.330021236131538
        ]
      }
    },
    {
      "type": "Feature",
      "properties": {
        "norad_id": 35440,
        "name": "COSMOS 2251 DEB",
        "group": "cosmos-2251-debris",
        "lat": 31.368811652252337,
        "lon": -161.18373404763062,
        "alt_km": 642.1705379554569,
        "timestamp": "2025-12-22T11:33:20.836114+00:00",
        "meta_object_name": "COSMOS 2251 DEB",
        "meta_object_id": "1993-036AKJ",
        "meta_epoch": "2025-12-17T20:15:19.490976",
        "meta_mean_motion": 14.68838958,
        "meta_eccentricity": 0.00695054,
        "meta_inclination": 74.0134,
        "meta_ra_of_asc_node": 197.7346,
        "meta_arg_of_pericenter": 337.3687,
        "meta_mean_anomaly": 22.4422,
        "meta_ephemeris_type": 0,
        "meta_classification_type": "U",
        "meta_norad_cat_id": 35440,
        "meta_element_set_no": 999,
        "meta_rev_at_epoch": 68840,
        "meta_bstar": 0.00030670457,
        "meta_mean_motion_dot": 1.824e-05,
        "meta_mean_motion_ddot": 0,
        "tle_line1": "1 35440U 93036AKJ 25351.84397559  .00001824  00000+0  30670-3 0  9996",
        "tle_line2": "2 35440  74.0134 197.7346 0069505 337.3687  22.4422 14.68838958688408"
      },
      "geometry": {
        "type": "Point",
        "coordinates": [
          -161.18373404763062,
          31.368811652252337
        ]
      }
    },
    {
      "type": "Feature",
      "properties": {
        "norad_id": 35441,
        "name": "COSMOS 2251 DEB",
        "group": "cosmos-2251-debris",
        "lat": 48.228981337865505,
        "lon": 80.97940561577562,
        "alt_km": 661.2456675165577,
        "timestamp": "2025-12-22T11:33:20.836124+00:00",
        "meta_object_name": "COSMOS 2251 DEB",
        "meta_object_id": "1993-036AKK",
        "meta_epoch": "2025-12-21T02:08:13.738560",
        "meta_mean_motion": 14.62705296,
        "meta_eccentricity": 0.00361872,
        "meta_inclination": 74.1353,
        "meta_ra_of_asc_node": 282.196,
        "meta_arg_of_pericenter": 175.8941,
        "meta_mean_anomaly": 184.2531,
        "meta_ephemeris_type": 0,
        "meta_classification_type": "U",
        "meta_norad_cat_id": 35441,
        "meta_element_set_no": 999,
        "meta_rev_at_epoch": 87552,
        "meta_bstar": 0.00090653358,
        "meta_mean_motion_dot": 4.633e-05,
        "meta_mean_motion_ddot": 0,
        "tle_line1": "1 35441U 93036AKK 25355.08904790  .00004633  00000+0  90653-3 0  9996",
        "tle_line2": "2 35441  74.1353 282.1960 0036187 175.8941 184.2531 14.62705296875523"
      },
      "geometry": {
        "type": "Point",
        "coordinates": [
          80.97940561577562,
          48.228981337865505
        ]
      }
    },
    {
      "type": "Feature",
      "properties": {
        "norad_id": 35442,
        "name": "COSMOS 2251 DEB",
        "group": "cosmos-2251-debris",
        "lat": 56.93284434121898,
        "lon": 105.89858799947609,
        "alt_km": 605.9546364633343,
        "timestamp": "2025-12-22T11:33:20.836134+00:00",
        "meta_object_name": "COSMOS 2251 DEB",
        "meta_object_id": "1993-036AKL",
        "meta_epoch": "2025-12-21T15:52:41.510784",
        "meta_mean_motion": 14.84721405,
        "meta_eccentricity": 0.0003826,
        "meta_inclination": 74.0271,
        "meta_ra_of_asc_node": 81.4264,
        "meta_arg_of_pericenter": 51.6549,
        "meta_mean_anomaly": 308.4973,
        "meta_ephemeris_type": 0,
        "meta_classification_type": "U",
        "meta_norad_cat_id": 35442,
        "meta_element_set_no": 999,
        "meta_rev_at_epoch": 87485,
        "meta_bstar": 0.0016051,
        "meta_mean_motion_dot": 0.00013595,
        "meta_mean_motion_ddot": 0,
        "tle_line1": "1 35442U 93036AKL 25355.66159156  .00013595  00000+0  16051-2 0  9995",
        "tle_line2": "2 35442  74.0271  81.4264 0003826  51.6549 308.4973 14.84721405874857"
      },
      "geometry": {
        "type": "Point",
        "coordinates": [
          105.89858799947609,
          56.93284434121898
        ]
      }
    },
    {
      "type": "Feature",
      "properties": {
        "norad_id": 35443,
        "name": "COSMOS 2251 DEB",
        "group": "cosmos-2251-debris",
        "lat": 7.607428800110525,
        "lon": 129.62536879789053,
        "alt_km": 567.9167440621804,
        "timestamp": "2025-12-22T11:33:20.836144+00:00",
        "meta_object_name": "COSMOS 2251 DEB",
        "meta_object_id": "1993-036AKM",
        "meta_epoch": "2025-12-21T07:32:20.929632",
        "meta_mean_motion": 14.97363427,
        "meta_eccentricity": 0.00728025,
        "meta_inclination": 73.99,
        "meta_ra_of_asc_node": 314.1919,
        "meta_arg_of_pericenter": 93.8694,
        "meta_mean_anomaly": 267.0818,
        "meta_ephemeris_type": 0,
        "meta_classification_type": "U",
        "meta_norad_cat_id": 35443,
        "meta_element_set_no": 999,
        "meta_rev_at_epoch": 87006,
        "meta_bstar": 0.0032774365,
        "meta_mean_motion_dot": 0.00040387,
        "meta_mean_motion_ddot": 0,
        "tle_line1": "1 35443U 93036AKM 25355.31413113  .00040387  00000+0  32774-2 0  9993",
        "tle_line2": "2 35443  73.9900 314.1919 0072802  93.8694 267.0818 14.97363427870064"
      },
      "geometry": {
        "type": "Point",
        "coordinates": [
          129.62536879789053,
          7.607428800110525
        ]
      }
    }
  ]
}